{
"type": "FeatureCollection",
"name": "nz_zones",
"crs": { "type": "name", "properties": { "name": "urn:ogc:def:crs:OGC:1.3:CRS84" } },
"features": [
{ "type": "Feature", "properties": { "zone": "cool" }, "geometry": { "type": "MultiPolygon", "coordinates": [ [ [ [ 172.666666666666657, -41.0 ], [ 172.833333333333343, -41.0 ], [ 172.833333333333343, -41.166666666666664 ], [ 172.666666666666657, -41.166666666666664 ], [ 172.666666666666657, -41.666666666666664 ], [ 172.833333333333343, -41.666666666666664 ], [ 172.833333333333343, -41.5 ], [ 173.333333333333343, -41.5 ], [ 173.333333333333343, -41.666666666666664 ], [ 173.833333333333343, -41.666666666666664 ], [ 173.833333333333343, -42.166666666666664 ], [ 173.666666666666657, -42.166666666666664 ], [ 173.666666666666657, -42.333333333333329 ], [ 173.333333333333343, -42.333333333333329 ], [ 173.333333333333343, -42.5 ], [ 173.0, -42.5 ], [ 173.0, -42.833333333333329 ], [ 172.833333333333343, -42.833333333333329 ], [ 172.833333333333343, -43.0 ], [ 172.5, -43.0 ], [ 172.5, -43.166666666666664 ], [ 172.166666666666657, -43.166666666666664 ], [ 172.166666666666657, -43.333333333333329 ], [ 172.0, -43.333333333333329 ], [ 172.0, -43.5 ], [ 171.666666666666657, -43.5 ], [ 171.666666666666657, -43.666666666666664 ], [ 171.5, -43.666666666666664 ], [ 171.5, -43.833333333333329 ], [ 171.333333333333343, -43.833333333333329 ], [ 171.333333333333343, -44.0 ], [ 171.0, -44.0 ], [ 171.0, -44.833333333333329 ], [ 170.833333333333343, -44.833333333333329 ], [ 170.833333333333343, -45.333333333333329 ], [ 170.666666666666657, -45.333333333333329 ], [ 170.666666666666657, -45.5 ], [ 170.5, -45.5 ], [ 170.5, -45.833333333333329 ], [ 170.166666666666657, -45.833333333333329 ], [ 170.166666666666657, -46.0 ], [ 169.666666666666657, -46.0 ], [ 169.666666666666657, -45.833333333333329 ], [ 169.5, -45.833333333333329 ], [ 169.5, -46.0 ], [ 169.333333333333343, -46.0 ], [ 169.333333333333343, -45.833333333333329 ], [ 168.666666666666657, -45.833333333333329 ], [ 168.666666666666657, -45.666666666666664 ], [ 168.0, -45.666666666666664 ], [ 168.0, -45.833333333333329 ], [ 167.666666666666657, -45.833333333333329 ], [ 167.666666666666657, -45.666666666666664 ], [ 167.833333333333343, -45.666666666666664 ], [ 167.833333333333343, -45.5 ], [ 168.0, -45.5 ], [ 168.0, -45.0 ], [ 167.666666666666657, -45.0 ], [ 167.666666666666657, -45.333333333333329 ], [ 167.5, -45.333333333333329 ], [ 167.5, -45.5 ], [ 167.333333333333343, -45.5 ], [ 167.333333333333343, -45.666666666666664 ], [ 167.5, -45.666666666666664 ], [ 167.5, -45.833333333333329 ], [ 167.166666666666657, -45.833333333333329 ], [ 167.166666666666657, -45.333333333333329 ], [ 167.333333333333343, -45.333333333333329 ], [ 167.333333333333343, -45.166666666666664 ], [ 167.5, -45.166666666666664 ], [ 167.5, -44.833333333333329 ], [ 167.666666666666657, -44.833333333333329 ], [ 167.666666666666657, -44.666666666666664 ], [ 167.833333333333343, -44.666666666666664 ], [ 167.833333333333343, -44.5 ], [ 168.166666666666657, -44.5 ], [ 168.166666666666657, -44.333333333333329 ], [ 168.333333333333343, -44.333333333333329 ], [ 168.333333333333343, -44.166666666666664 ], [ 168.833333333333343, -44.166666666666664 ], [ 168.833333333333343, -44.0 ], [ 169.166666666666657, -44.0 ], [ 169.166666666666657, -43.833333333333329 ], [ 169.5, -43.833333333333329 ], [ 169.5, -43.666666666666664 ], [ 169.833333333333343, -43.666666666666664 ], [ 169.833333333333343, -43.5 ], [ 170.166666666666657, -43.5 ], [ 170.166666666666657, -43.333333333333329 ], [ 170.5, -43.333333333333329 ], [ 170.5, -43.166666666666664 ], [ 170.666666666666657, -43.166666666666664 ], [ 170.666666666666657, -43.0 ], [ 171.166666666666657, -43.0 ], [ 171.166666666666657, -42.833333333333329 ], [ 171.333333333333343, -42.833333333333329 ], [ 171.333333333333343, -42.666666666666664 ], [ 171.666666666666657, -42.666666666666664 ], [ 171.666666666666657, -42.5 ], [ 171.833333333333343, -42.5 ], [ 171.833333333333343, -42.166666666666664 ], [ 172.0, -42.166666666666664 ], [ 172.0, -41.833333333333336 ], [ 172.166666666666657, -41.833333333333336 ], [ 172.166666666666657, -41.333333333333336 ], [ 172.333333333333343, -41.333333333333336 ], [ 172.333333333333343, -41.166666666666664 ], [ 172.166666666666657, -41.166666666666664 ], [ 172.166666666666657, -41.0 ], [ 172.5, -41.0 ], [ 172.5, -40.833333333333336 ], [ 172.666666666666657, -40.833333333333336 ], [ 172.666666666666657, -41.0 ] ] ], [ [ [ 171.666666666666657, -42.166666666666664 ], [ 171.5, -42.166666666666664 ], [ 171.5, -42.0 ], [ 171.666666666666657, -42.0 ], [ 171.666666666666657, -42.166666666666664 ] ] ], [ [ [ 173.5, -41.5 ], [ 173.333333333333343, -41.5 ], [ 173.333333333333343, -41.333333333333336 ], [ 173.5, -41.333333333333336 ], [ 173.5, -41.5 ] ] ], [ [ [ 175.666666666666657, -39.166666666666664 ], [ 175.833333333333343, -39.166666666666664 ], [ 175.833333333333343, -39.0 ], [ 176.166666666666657, -39.0 ], [ 176.166666666666657, -39.166666666666664 ], [ 176.333333333333343, -39.166666666666664 ], [ 176.333333333333343, -39.333333333333336 ], [ 176.166666666666657, -39.333333333333336 ], [ 176.166666666666657, -40.0 ], [ 176.0, -40.0 ], [ 176.0, -39.5 ], [ 175.5, -39.5 ], [ 175.5, -39.333333333333336 ], [ 175.333333333333343, -39.333333333333336 ], [ 175.333333333333343, -39.166666666666664 ], [ 175.5, -39.166666666666664 ], [ 175.5, -39.0 ], [ 175.666666666666657, -39.0 ], [ 175.666666666666657, -39.166666666666664 ] ] ] ] } },
{ "type": "Feature", "properties": { "zone": "subtropical" }, "geometry": { "type": "MultiPolygon", "coordinates": [ [ [ [ 167.833333333333343, -47.333333333333329 ], [ 167.166666666666657, -47.333333333333329 ], [ 167.166666666666657, -47.166666666666664 ], [ 167.333333333333343, -47.166666666666664 ], [ 167.333333333333343, -47.0 ], [ 167.5, -47.0 ], [ 167.5, -47.166666666666664 ], [ 167.833333333333343, -47.166666666666664 ], [ 167.833333333333343, -47.333333333333329 ] ] ], [ [ [ 168.333333333333343, -46.666666666666664 ], [ 168.333333333333343, -46.833333333333329 ], [ 168.166666666666657, -46.833333333333329 ], [ 168.166666666666657, -46.666666666666664 ], [ 168.333333333333343, -46.666666666666664 ] ] ], [ [ [ 167.0, -46.5 ], [ 167.0, -46.666666666666664 ], [ 166.833333333333343, -46.666666666666664 ], [ 166.833333333333343, -46.5 ], [ 167.0, -46.5 ] ] ], [ [ [ 166.666666666666657, -46.0 ], [ 166.666666666666657, -46.166666666666664 ], [ 166.833333333333343, -46.166666666666664 ], [ 166.833333333333343, -46.333333333333329 ], [ 166.5, -46.333333333333329 ], [ 166.5, -46.166666666666664 ], [ 166.333333333333343, -46.166666666666664 ], [ 166.333333333333343, -45.666666666666664 ], [ 166.666666666666657, -45.666666666666664 ], [ 166.666666666666657, -45.833333333333329 ], [ 166.5, -45.833333333333329 ], [ 166.5, -46.0 ], [ 166.666666666666657, -46.0 ] ] ], [ [ [ 174.333333333333343, -40.833333333333336 ], [ 174.333333333333343, -41.0 ], [ 174.166666666666657, -41.0 ], [ 174.166666666666657, -40.833333333333336 ], [ 174.333333333333343, -40.833333333333336 ] ] ], [ [ [ 174.166666666666657, -40.666666666666664 ], [ 174.166666666666657, -40.833333333333336 ], [ 174.0, -40.833333333333336 ], [ 174.0, -40.666666666666664 ], [ 174.166666666666657, -40.666666666666664 ] ] ], [ [ [ 173.166666666666657, -40.5 ], [ 173.166666666666657, -40.666666666666664 ], [ 172.666666666666657, -40.666666666666664 ], [ 172.666666666666657, -40.5 ], [ 173.166666666666657, -40.5 ] ] ], [ [ [ 173.833333333333343, -39.5 ], [ 174.166666666666657, -39.5 ], [ 174.166666666666657, -39.666666666666664 ], [ 173.833333333333343, -39.666666666666664 ], [ 173.833333333333343, -39.5 ] ] ], [ [ [ 173.833333333333343, -39.5 ], [ 173.666666666666657, -39.5 ], [ 173.666666666666657, -39.166666666666664 ], [ 173.833333333333343, -39.166666666666664 ], [ 173.833333333333343, -39.5 ] ] ], [ [ [ 173.833333333333343, -39.0 ], [ 174.166666666666657, -39.0 ], [ 174.166666666666657, -39.166666666666664 ], [ 173.833333333333343, -39.166666666666664 ], [ 173.833333333333343, -39.0 ] ] ], [ [ [ 174.5, -39.0 ], [ 174.166666666666657, -39.0 ], [ 174.166666666666657, -38.833333333333336 ], [ 174.5, -38.833333333333336 ], [ 174.5, -39.0 ] ] ], [ [ [ 174.5, -38.666666666666664 ], [ 174.666666666666657, -38.666666666666664 ], [ 174.666666666666657, -38.833333333333336 ], [ 174.5, -38.833333333333336 ], [ 174.5, -38.666666666666664 ] ] ], [ [ [ 175.666666666666657, -36.333333333333336 ], [ 175.833333333333343, -36.333333333333336 ], [ 175.833333333333343, -36.5 ], [ 176.0, -36.5 ], [ 176.0, -36.833333333333336 ], [ 176.166666666666657, -36.833333333333336 ], [ 176.166666666666657, -37.0 ], [ 176.0, -37.0 ], [ 176.0, -37.333333333333336 ], [ 175.833333333333343, -37.333333333333336 ], [ 175.833333333333343, -37.0 ], [ 175.666666666666657, -37.0 ], [ 175.666666666666657, -36.833333333333336 ], [ 175.5, -36.833333333333336 ], [ 175.5, -37.0 ], [ 175.0, -37.0 ], [ 175.0, -37.5 ], [ 174.833333333333343, -37.5 ], [ 174.833333333333343, -37.666666666666664 ], [ 175.0, -37.666666666666664 ], [ 175.0, -37.833333333333336 ], [ 174.666666666666657, -37.833333333333336 ], [ 174.666666666666657, -37.333333333333336 ], [ 174.5, -37.333333333333336 ], [ 174.5, -37.166666666666664 ], [ 174.333333333333343, -37.166666666666664 ], [ 174.333333333333343, -36.833333333333336 ], [ 174.166666666666657, -36.833333333333336 ], [ 174.166666666666657, -36.5 ], [ 174.0, -36.5 ], [ 174.0, -36.333333333333336 ], [ 173.833333333333343, -36.333333333333336 ], [ 173.833333333333343, -36.166666666666664 ], [ 173.666666666666657, -36.166666666666664 ], [ 173.666666666666657, -36.0 ], [ 173.5, -36.0 ], [ 173.5, -35.833333333333336 ], [ 173.333333333333343, -35.833333333333336 ], [ 173.333333333333343, -35.5 ], [ 173.166666666666657, -35.5 ], [ 173.166666666666657, -35.333333333333336 ], [ 173.0, -35.333333333333336 ], [ 173.0, -34.833333333333336 ], [ 172.833333333333343, -34.833333333333336 ], [ 172.833333333333343, -34.666666666666664 ], [ 172.666666666666657, -34.666666666666664 ], [ 172.666666666666657, -34.5 ], [ 172.5, -34.5 ], [ 172.5, -34.333333333333336 ], [ 173.166666666666657, -34.333333333333336 ], [ 173.166666666666657, -34.666666666666664 ], [ 173.5, -34.666666666666664 ], [ 173.5, -34.833333333333336 ], [ 174.0, -34.833333333333336 ], [ 174.0, -35.0 ], [ 174.166666666666657, -35.0 ], [ 174.166666666666657, -35.166666666666664 ], [ 174.5, -35.166666666666664 ], [ 174.5, -35.5 ], [ 174.666666666666657, -35.5 ], [ 174.666666666666657, -35.833333333333336 ], [ 174.833333333333343, -35.833333333333336 ], [ 174.833333333333343, -36.0 ], [ 174.666666666666657, -36.0 ], [ 174.666666666666657, -36.166666666666664 ], [ 174.833333333333343, -36.166666666666664 ], [ 174.833333333333343, -36.333333333333336 ], [ 175.0, -36.333333333333336 ], [ 175.0, -36.166666666666664 ], [ 175.166666666666657, -36.166666666666664 ], [ 175.166666666666657, -36.0 ], [ 175.666666666666657, -36.0 ], [ 175.666666666666657, -36.333333333333336 ] ], [ [ 175.0, -36.666666666666664 ], [ 175.166666666666657, -36.666666666666664 ], [ 175.166666666666657, -36.333333333333336 ], [ 175.0, -36.333333333333336 ], [ 175.0, -36.666666666666664 ] ] ], [ [ [ 172.166666666666657, -34.0 ], [ 172.166666666666657, -34.333333333333336 ], [ 172.0, -34.333333333333336 ], [ 172.0, -34.0 ], [ 172.166666666666657, -34.0 ] ] ], [ [ [ 175.666666666666657, -41.5 ], [ 175.666666666666657, -41.666666666666664 ], [ 175.5, -41.666666666666664 ], [ 175.5, -41.5 ], [ 175.666666666666657, -41.5 ] ] ], [ [ [ 174.833333333333343, -41.333333333333336 ], [ 174.833333333333343, -41.5 ], [ 174.5, -41.5 ], [ 174.5, -41.333333333333336 ], [ 174.833333333333343, -41.333333333333336 ] ] ], [ [ [ 175.833333333333343, -41.333333333333336 ], [ 175.833333333333343, -41.5 ], [ 175.666666666666657, -41.5 ], [ 175.666666666666657, -41.333333333333336 ], [ 175.833333333333343, -41.333333333333336 ] ] ], [ [ [ 176.333333333333343, -40.833333333333336 ], [ 176.333333333333343, -41.0 ], [ 176.166666666666657, -41.0 ], [ 176.166666666666657, -41.333333333333336 ], [ 176.0, -41.333333333333336 ], [ 176.0, -40.833333333333336 ], [ 176.166666666666657, -40.833333333333336 ], [ 176.166666666666657, -40.666666666666664 ], [ 176.333333333333343, -40.666666666666664 ], [ 176.333333333333343, -40.5 ], [ 176.666666666666657, -40.5 ], [ 176.666666666666657, -40.666666666666664 ], [ 176.5, -40.666666666666664 ], [ 176.5, -40.833333333333336 ], [ 176.333333333333343, -40.833333333333336 ] ] ], [ [ [ 177.833333333333343, -39.166666666666664 ], [ 177.833333333333343, -39.0 ], [ 178.0, -39.0 ], [ 178.0, -39.333333333333336 ], [ 177.666666666666657, -39.333333333333336 ], [ 177.666666666666657, -39.166666666666664 ], [ 177.833333333333343, -39.166666666666664 ] ] ], [ [ [ 178.166666666666657, -38.833333333333336 ], [ 178.0, -38.833333333333336 ], [ 178.0, -38.666666666666664 ], [ 178.166666666666657, -38.666666666666664 ], [ 178.166666666666657, -38.833333333333336 ] ] ], [ [ [ 178.166666666666657, -38.5 ], [ 178.333333333333343, -38.5 ], [ 178.333333333333343, -38.666666666666664 ], [ 178.166666666666657, -38.666666666666664 ], [ 178.166666666666657, -38.5 ] ] ], [ [ [ 174.666666666666657, -38.0 ], [ 174.833333333333343, -38.0 ], [ 174.833333333333343, -38.166666666666664 ], [ 174.666666666666657, -38.166666666666664 ], [ 174.666666666666657, -38.0 ] ] ], [ [ [ 178.333333333333343, -38.5 ], [ 178.333333333333343, -37.666666666666664 ], [ 177.666666666666657, -37.666666666666664 ], [ 177.666666666666657, -37.5 ], [ 178.666666666666657, -37.5 ], [ 178.666666666666657, -37.833333333333336 ], [ 178.5, -37.833333333333336 ], [ 178.5, -38.5 ], [ 178.333333333333343, -38.5 ] ] ], [ [ [ 177.333333333333343, -37.5 ], [ 177.333333333333343, -37.666666666666664 ], [ 177.166666666666657, -37.666666666666664 ], [ 177.166666666666657, -37.5 ], [ 177.333333333333343, -37.5 ] ] ], [ [ [ 176.0, -37.333333333333336 ], [ 176.166666666666657, -37.333333333333336 ], [ 176.166666666666657, -37.5 ], [ 176.5, -37.5 ], [ 176.5, -37.666666666666664 ], [ 176.0, -37.666666666666664 ], [ 176.0, -37.333333333333336 ] ] ], [ [ [ 176.166666666666657, -37.166666666666664 ], [ 176.333333333333343, -37.166666666666664 ], [ 176.333333333333343, -37.333333333333336 ], [ 176.166666666666657, -37.333333333333336 ], [ 176.166666666666657, -37.166666666666664 ] ] ], [ [ [ 175.166666666666657, -35.833333333333336 ], [ 175.166666666666657, -36.0 ], [ 175.0, -36.0 ], [ 175.0, -35.833333333333336 ], [ 175.166666666666657, -35.833333333333336 ] ] ], [ [ [ 174.833333333333343, -35.333333333333336 ], [ 174.833333333333343, -35.5 ], [ 174.666666666666657, -35.5 ], [ 174.666666666666657, -35.333333333333336 ], [ 174.833333333333343, -35.333333333333336 ] ] ] ] } },
{ "type": "Feature", "properties": { "zone": "temperate" }, "geometry": { "type": "MultiPolygon", "coordinates": [ [ [ [ 168.333333333333343, -47.166666666666664 ], [ 168.0, -47.166666666666664 ], [ 168.0, -47.333333333333329 ], [ 167.833333333333343, -47.333333333333329 ], [ 167.833333333333343, -47.166666666666664 ], [ 167.5, -47.166666666666664 ], [ 167.5, -47.0 ], [ 167.666666666666657, -47.0 ], [ 167.666666666666657, -46.833333333333329 ], [ 167.5, -46.833333333333329 ], [ 167.5, -46.666666666666664 ], [ 168.166666666666657, -46.666666666666664 ], [ 168.166666666666657, -46.833333333333329 ], [ 168.333333333333343, -46.833333333333329 ], [ 168.333333333333343, -47.166666666666664 ] ] ], [ [ [ 168.166666666666657, -46.5 ], [ 167.666666666666657, -46.5 ], [ 167.666666666666657, -46.333333333333329 ], [ 166.833333333333343, -46.333333333333329 ], [ 166.833333333333343, -46.166666666666664 ], [ 166.666666666666657, -46.166666666666664 ], [ 166.666666666666657, -46.0 ], [ 166.5, -46.0 ], [ 166.5, -45.833333333333329 ], [ 166.666666666666657, -45.833333333333329 ], [ 166.666666666666657, -45.666666666666664 ], [ 166.5, -45.666666666666664 ], [ 166.5, -45.5 ], [ 166.666666666666657, -45.5 ], [ 166.666666666666657, -45.166666666666664 ], [ 166.833333333333343, -45.166666666666664 ], [ 166.833333333333343, -45.0 ], [ 167.0, -45.0 ], [ 167.0, -44.833333333333329 ], [ 167.333333333333343, -44.833333333333329 ], [ 167.333333333333343, -44.666666666666664 ], [ 167.5, -44.666666666666664 ], [ 167.5, -44.5 ], [ 167.666666666666657, -44.5 ], [ 167.666666666666657, -44.333333333333329 ], [ 167.833333333333343, -44.333333333333329 ], [ 167.833333333333343, -44.166666666666664 ], [ 168.166666666666657, -44.166666666666664 ], [ 168.166666666666657, -44.0 ], [ 168.5, -44.0 ], [ 168.5, -43.833333333333329 ], [ 169.0, -43.833333333333329 ], [ 169.0, -43.666666666666664 ], [ 169.333333333333343, -43.666666666666664 ], [ 169.333333333333343, -43.5 ], [ 169.666666666666657, -43.5 ], [ 169.666666666666657, -43.333333333333329 ], [ 170.0, -43.333333333333329 ], [ 170.0, -43.166666666666664 ], [ 170.166666666666657, -43.166666666666664 ], [ 170.166666666666657, -43.0 ], [ 170.5, -43.0 ], [ 170.5, -42.833333333333329 ], [ 170.833333333333343, -42.833333333333329 ], [ 170.833333333333343, -42.666666666666664 ], [ 171.0, -42.666666666666664 ], [ 171.0, -42.5 ], [ 171.166666666666657, -42.5 ], [ 171.166666666666657, -42.0 ], [ 171.333333333333343, -42.0 ], [ 171.333333333333343, -41.666666666666664 ], [ 171.666666666666657, -41.666666666666664 ], [ 171.666666666666657, -41.5 ], [ 171.833333333333343, -41.5 ], [ 171.833333333333343, -41.333333333333336 ], [ 172.0, -41.333333333333336 ], [ 172.0, -40.666666666666664 ], [ 172.333333333333343, -40.666666666666664 ], [ 172.333333333333343, -40.5 ], [ 172.666666666666657, -40.5 ], [ 172.666666666666657, -40.666666666666664 ], [ 173.166666666666657, -40.666666666666664 ], [ 173.166666666666657, -41.166666666666664 ], [ 173.333333333333343, -41.166666666666664 ], [ 173.333333333333343, -41.0 ], [ 173.666666666666657, -41.0 ], [ 173.666666666666657, -40.666666666666664 ], [ 174.0, -40.666666666666664 ], [ 174.0, -40.833333333333336 ], [ 174.166666666666657, -40.833333333333336 ], [ 174.166666666666657, -41.0 ], [ 174.5, -41.0 ], [ 174.5, -41.166666666666664 ], [ 174.666666666666657, -41.166666666666664 ], [ 174.666666666666657, -41.0 ], [ 174.833333333333343, -41.0 ], [ 174.833333333333343, -40.666666666666664 ], [ 175.0, -40.666666666666664 ], [ 175.0, -40.5 ], [ 175.166666666666657, -40.5 ], [ 175.166666666666657, -40.166666666666664 ], [ 175.0, -40.166666666666664 ], [ 175.0, -40.0 ], [ 174.5, -40.0 ], [ 174.5, -39.833333333333336 ], [ 174.333333333333343, -39.833333333333336 ], [ 174.333333333333343, -39.666666666666664 ], [ 174.166666666666657, -39.666666666666664 ], [ 174.166666666666657, -39.5 ], [ 173.833333333333343, -39.5 ], [ 173.833333333333343, -39.166666666666664 ], [ 174.166666666666657, -39.166666666666664 ], [ 174.166666666666657, -39.0 ], [ 174.5, -39.0 ], [ 174.5, -38.833333333333336 ], [ 174.666666666666657, -38.833333333333336 ], [ 174.666666666666657, -38.666666666666664 ], [ 174.5, -38.666666666666664 ], [ 174.5, -38.333333333333336 ], [ 174.666666666666657, -38.333333333333336 ], [ 174.666666666666657, -38.166666666666664 ], [ 174.833333333333343, -38.166666666666664 ], [ 174.833333333333343, -38.0 ], [ 174.666666666666657, -38.0 ], [ 174.666666666666657, -37.833333333333336 ], [ 175.0, -37.833333333333336 ], [ 175.0, -37.666666666666664 ], [ 174.833333333333343, -37.666666666666664 ], [ 174.833333333333343, -37.5 ], [ 175.0, -37.5 ], [ 175.0, -37.0 ], [ 175.333333333333343, -37.0 ], [ 175.333333333333343, -37.166666666666664 ], [ 175.5, -37.166666666666664 ], [ 175.5, -36.833333333333336 ], [ 175.666666666666657, -36.833333333333336 ], [ 175.666666666666657, -37.0 ], [ 175.833333333333343, -37.0 ], [ 175.833333333333343, -37.333333333333336 ], [ 176.0, -37.333333333333336 ], [ 176.0, -37.666666666666664 ], [ 176.666666666666657, -37.666666666666664 ], [ 176.666666666666657, -37.833333333333336 ], [ 177.5, -37.833333333333336 ], [ 177.5, -37.666666666666664 ], [ 178.333333333333343, -37.666666666666664 ], [ 178.333333333333343, -38.5 ], [ 178.166666666666657, -38.5 ], [ 178.166666666666657, -38.666666666666664 ], [ 178.0, -38.666666666666664 ], [ 178.0, -39.0 ], [ 177.833333333333343, -39.0 ], [ 177.833333333333343, -39.166666666666664 ], [ 177.166666666666657, -39.166666666666664 ], [ 177.166666666666657, -39.333333333333336 ], [ 177.0, -39.333333333333336 ], [ 177.0, -39.5 ], [ 177.166666666666657, -39.5 ], [ 177.166666666666657, -40.0 ], [ 177.0, -40.0 ], [ 177.0, -40.166666666666664 ], [ 176.833333333333343, -40.166666666666664 ], [ 176.833333333333343, -40.333333333333336 ], [ 176.666666666666657, -40.333333333333336 ], [ 176.666666666666657, -40.5 ], [ 176.333333333333343, -40.5 ], [ 176.333333333333343, -40.666666666666664 ], [ 176.166666666666657, -40.666666666666664 ], [ 176.166666666666657, -40.833333333333336 ], [ 176.0, -40.833333333333336 ], [ 176.0, -41.333333333333336 ], [ 175.666666666666657, -41.333333333333336 ], [ 175.666666666666657, -41.5 ], [ 175.5, -41.5 ], [ 175.5, -41.666666666666664 ], [ 175.166666666666657, -41.666666666666664 ], [ 175.166666666666657, -41.5 ], [ 174.833333333333343, -41.5 ], [ 174.833333333333343, -41.333333333333336 ], [ 174.166666666666657, -41.333333333333336 ], [ 174.166666666666657, -41.666666666666664 ], [ 174.333333333333343, -41.666666666666664 ], [ 174.333333333333343, -42.0 ], [ 174.166666666666657, -42.0 ], [ 174.166666666666657, -42.166666666666664 ], [ 174.0, -42.166666666666664 ], [ 174.0, -42.333333333333329 ], [ 173.833333333333343, -42.333333333333329 ], [ 173.833333333333343, -42.5 ], [ 173.666666666666657, -42.5 ], [ 173.666666666666657, -42.666666666666664 ], [ 173.5, -42.666666666666664 ], [ 173.5, -42.833333333333329 ], [ 173.333333333333343, -42.833333333333329 ], [ 173.333333333333343, -43.0 ], [ 173.166666666666657, -43.0 ], [ 173.166666666666657, -43.166666666666664 ], [ 172.833333333333343, -43.166666666666664 ], [ 172.833333333333343, -43.5 ], [ 173.166666666666657, -43.5 ], [ 173.166666666666657, -44.0 ], [ 172.0, -44.0 ], [ 172.0, -44.166666666666664 ], [ 171.666666666666657, -44.166666666666664 ], [ 171.666666666666657, -44.333333333333329 ], [ 171.333333333333343, -44.333333333333329 ], [ 171.333333333333343, -45.0 ], [ 171.166666666666657, -45.0 ], [ 171.166666666666657, -45.166666666666664 ], [ 171.0, -45.166666666666664 ], [ 171.0, -45.5 ], [ 170.833333333333343, -45.5 ], [ 170.833333333333343, -46.0 ], [ 170.333333333333343, -46.0 ], [ 170.333333333333343, -46.166666666666664 ], [ 170.166666666666657, -46.166666666666664 ], [ 170.166666666666657, -46.333333333333329 ], [ 169.833333333333343, -46.333333333333329 ], [ 169.833333333333343, -46.666666666666664 ], [ 169.166666666666657, -46.666666666666664 ], [ 169.166666666666657, -46.833333333333329 ], [ 168.833333333333343, -46.833333333333329 ], [ 168.833333333333343, -46.666666666666664 ], [ 168.666666666666657, -46.666666666666664 ], [ 168.666666666666657, -46.833333333333329 ], [ 168.333333333333343, -46.833333333333329 ], [ 168.333333333333343, -46.666666666666664 ], [ 168.166666666666657, -46.666666666666664 ], [ 168.166666666666657, -46.5 ] ], [ [ 175.5, -39.166666666666664 ], [ 175.333333333333343, -39.166666666666664 ], [ 175.333333333333343, -39.333333333333336 ], [ 175.5, -39.333333333333336 ], [ 175.5, -39.5 ], [ 176.0, -39.5 ], [ 176.0, -40.0 ], [ 176.166666666666657, -40.0 ], [ 176.166666666666657, -39.333333333333336 ], [ 176.333333333333343, -39.333333333333336 ], [ 176.333333333333343, -39.166666666666664 ], [ 176.166666666666657, -39.166666666666664 ], [ 176.166666666666657, -39.0 ], [ 175.833333333333343, -39.0 ], [ 175.833333333333343, -39.166666666666664 ], [ 175.666666666666657, -39.166666666666664 ], [ 175.666666666666657, -39.0 ], [ 175.5, -39.0 ], [ 175.5, -39.166666666666664 ] ], [ [ 172.833333333333343, -41.5 ], [ 172.833333333333343, -41.666666666666664 ], [ 172.666666666666657, -41.666666666666664 ], [ 172.666666666666657, -41.166666666666664 ], [ 172.833333333333343, -41.166666666666664 ], [ 172.833333333333343, -41.0 ], [ 172.666666666666657, -41.0 ], [ 172.666666666666657, -40.833333333333336 ], [ 172.5, -40.833333333333336 ], [ 172.5, -41.0 ], [ 172.166666666666657, -41.0 ], [ 172.166666666666657, -41.166666666666664 ], [ 172.333333333333343, -41.166666666666664 ], [ 172.333333333333343, -41.333333333333336 ], [ 172.166666666666657, -41.333333333333336 ], [ 172.166666666666657, -41.833333333333336 ], [ 172.0, -41.833333333333336 ], [ 172.0, -42.166666666666664 ], [ 171.833333333333343, -42.166666666666664 ], [ 171.833333333333343, -42.5 ], [ 171.666666666666657, -42.5 ], [ 171.666666666666657, -42.666666666666664 ], [ 171.333333333333343, -42.666666666666664 ], [ 171.333333333333343, -42.833333333333329 ], [ 171.166666666666657, -42.833333333333329 ], [ 171.166666666666657, -43.0 ], [ 170.666666666666657, -43.0 ], [ 170.666666666666657, -43.166666666666664 ], [ 170.5, -43.166666666666664 ], [ 170.5, -43.333333333333329 ], [ 170.166666666666657, -43.333333333333329 ], [ 170.166666666666657, -43.5 ], [ 169.833333333333343, -43.5 ], [ 169.833333333333343, -43.666666666666664 ], [ 169.5, -43.666666666666664 ], [ 169.5, -43.833333333333329 ], [ 169.166666666666657, -43.833333333333329 ], [ 169.166666666666657, -44.0 ], [ 168.833333333333343, -44.0 ], [ 168.833333333333343, -44.166666666666664 ], [ 168.333333333333343, -44.166666666666664 ], [ 168.333333333333343, -44.333333333333329 ], [ 168.166666666666657, -44.333333333333329 ], [ 168.166666666666657, -44.5 ], [ 167.833333333333343, -44.5 ], [ 167.833333333333343, -44.666666666666664 ], [ 167.666666666666657, -44.666666666666664 ], [ 167.666666666666657, -44.833333333333329 ], [ 167.5, -44.833333333333329 ], [ 167.5, -45.166666666666664 ], [ 167.333333333333343, -45.166666666666664 ], [ 167.333333333333343, -45.333333333333329 ], [ 167.166666666666657, -45.333333333333329 ], [ 167.166666666666657, -45.833333333333329 ], [ 167.5, -45.833333333333329 ], [ 167.5, -45.666666666666664 ], [ 167.333333333333343, -45.666666666666664 ], [ 167.333333333333343, -45.5 ], [ 167.5, -45.5 ], [ 167.5, -45.333333333333329 ], [ 167.666666666666657, -45.333333333333329 ], [ 167.666666666666657, -45.0 ], [ 168.0, -45.0 ], [ 168.0, -45.5 ], [ 167.833333333333343, -45.5 ], [ 167.833333333333343, -45.666666666666664 ], [ 167.666666666666657, -45.666666666666664 ], [ 167.666666666666657, -45.833333333333329 ], [ 168.0, -45.833333333333329 ], [ 168.0, -45.666666666666664 ], [ 168.666666666666657, -45.666666666666664 ], [ 168.666666666666657, -45.833333333333329 ], [ 169.333333333333343, -45.833333333333329 ], [ 169.333333333333343, -46.0 ], [ 169.5, -46.0 ], [ 169.5, -45.833333333333329 ], [ 169.666666666666657, -45.833333333333329 ], [ 169.666666666666657, -46.0 ], [ 170.166666666666657, -46.0 ], [ 170.166666666666657, -45.833333333333329 ], [ 170.5, -45.833333333333329 ], [ 170.5, -45.5 ], [ 170.666666666666657, -45.5 ], [ 170.666666666666657, -45.333333333333329 ], [ 170.833333333333343, -45.333333333333329 ], [ 170.833333333333343, -44.833333333333329 ], [ 171.0, -44.833333333333329 ], [ 171.0, -44.0 ], [ 171.333333333333343, -44.0 ], [ 171.333333333333343, -43.833333333333329 ], [ 171.5, -43.833333333333329 ], [ 171.5, -43.666666666666664 ], [ 171.666666666666657, -43.666666666666664 ], [ 171.666666666666657, -43.5 ], [ 172.0, -43.5 ], [ 172.0, -43.333333333333329 ], [ 172.166666666666657, -43.333333333333329 ], [ 172.166666666666657, -43.166666666666664 ], [ 172.5, -43.166666666666664 ], [ 172.5, -43.0 ], [ 172.833333333333343, -43.0 ], [ 172.833333333333343, -42.833333333333329 ], [ 173.0, -42.833333333333329 ], [ 173.0, -42.5 ], [ 173.333333333333343, -42.5 ], [ 173.333333333333343, -42.333333333333329 ], [ 173.666666666666657, -42.333333333333329 ], [ 173.666666666666657, -42.166666666666664 ], [ 173.833333333333343, -42.166666666666664 ], [ 173.833333333333343, -41.666666666666664 ], [ 173.333333333333343, -41.666666666666664 ], [ 173.333333333333343, -41.5 ], [ 172.833333333333343, -41.5 ] ], [ [ 173.5, -41.5 ], [ 173.5, -41.333333333333336 ], [ 173.333333333333343, -41.333333333333336 ], [ 173.333333333333343, -41.5 ], [ 173.5, -41.5 ] ], [ [ 171.5, -42.166666666666664 ], [ 171.666666666666657, -42.166666666666664 ], [ 171.666666666666657, -42.0 ], [ 171.5, -42.0 ], [ 171.5, -42.166666666666664 ] ] ] ] } }
]
}
