{
"type": "FeatureCollection",
"name": "uk_zones",
"crs": { "type": "name", "properties": { "name": "urn:ogc:def:crs:OGC:1.3:CRS84" } },
"features": [
{ "type": "Feature", "properties": { "zone": "cool" }, "geometry": { "type": "Polygon", "coordinates": [ [ [ -3.833333333333334, 57.166666666666664 ], [ -3.833333333333334, 56.833333333333336 ], [ -3.166666666666667, 56.833333333333336 ], [ -3.166666666666667, 57.0 ], [ -3.333333333333334, 57.0 ], [ -3.333333333333334, 57.166666666666664 ], [ -3.833333333333334, 57.166666666666664 ] ] ] } },
{ "type": "Feature", "properties": { "zone": "warm" }, "geometry": { "type": "MultiPolygon", "coordinates": [ [ [ [ -6.5, 50.0 ], [ -6.166666666666667, 50.0 ], [ -6.166666666666667, 49.833333333333336 ], [ -6.5, 49.833333333333336 ], [ -6.5, 50.0 ] ] ], [ [ [ -6.0, 55.166666666666664 ], [ -5.833333333333334, 55.166666666666664 ], [ -5.833333333333334, 55.0 ], [ -5.666666666666667, 55.0 ], [ -5.666666666666667, 54.833333333333336 ], [ -5.5, 54.833333333333336 ], [ -5.5, 54.666666666666664 ], [ -5.333333333333334, 54.666666666666664 ], [ -5.333333333333334, 54.333333333333336 ], [ -5.5, 54.333333333333336 ], [ -5.5, 54.166666666666664 ], [ -5.833333333333334, 54.166666666666664 ], [ -5.833333333333334, 54.0 ], [ -6.0, 54.0 ], [ -6.0, 53.833333333333336 ], [ -6.166666666666667, 53.833333333333336 ], [ -6.166666666666667, 53.666666666666664 ], [ -6.0, 53.666666666666664 ], [ -6.0, 52.666666666666671 ], [ -6.166666666666667, 52.666666666666671 ], [ -6.166666666666667, 52.166666666666671 ], [ -6.5, 52.166666666666671 ], [ -6.5, 52.0 ], [ -6.666666666666667, 52.0 ], [ -6.666666666666667, 52.166666666666671 ], [ -6.833333333333334, 52.166666666666671 ], [ -6.833333333333334, 52.0 ], [ -7.5, 52.0 ], [ -7.5, 51.833333333333336 ], [ -8.0, 51.833333333333336 ], [ -8.0, 51.666666666666671 ], [ -8.5, 51.666666666666671 ], [ -8.5, 51.5 ], [ -9.166666666666666, 51.5 ], [ -9.166666666666666, 51.333333333333336 ], [ -9.833333333333334, 51.333333333333336 ], [ -9.833333333333334, 51.5 ], [ -10.333333333333334, 51.5 ], [ -10.333333333333334, 51.666666666666671 ], [ -10.666666666666666, 51.666666666666671 ], [ -10.666666666666666, 51.833333333333336 ], [ -10.5, 51.833333333333336 ], [ -10.5, 52.0 ], [ -10.666666666666666, 52.0 ], [ -10.666666666666666, 52.166666666666671 ], [ -10.5, 52.166666666666671 ], [ -10.5, 52.333333333333336 ], [ -10.166666666666666, 52.333333333333336 ], [ -10.166666666666666, 52.5 ], [ -10.0, 52.5 ], [ -10.0, 52.666666666666671 ], [ -9.833333333333334, 52.666666666666671 ], [ -9.833333333333334, 52.833333333333336 ], [ -9.5, 52.833333333333336 ], [ -9.5, 53.0 ], [ -10.0, 53.0 ], [ -10.0, 53.333333333333336 ], [ -10.333333333333334, 53.333333333333336 ], [ -10.333333333333334, 53.666666666666664 ], [ -10.166666666666666, 53.666666666666664 ], [ -10.166666666666666, 53.833333333333336 ], [ -10.333333333333334, 53.833333333333336 ], [ -10.333333333333334, 54.166666666666664 ], [ -10.166666666666666, 54.166666666666664 ], [ -10.166666666666666, 54.333333333333336 ], [ -9.833333333333334, 54.333333333333336 ], [ -9.833333333333334, 54.5 ], [ -9.666666666666666, 54.5 ], [ -9.666666666666666, 54.333333333333336 ], [ -8.833333333333334, 54.333333333333336 ], [ -8.833333333333334, 54.833333333333336 ], [ -8.666666666666668, 54.833333333333336 ], [ -8.666666666666668, 55.166666666666664 ], [ -8.333333333333334, 55.166666666666664 ], [ -8.333333333333334, 55.333333333333336 ], [ -7.5, 55.333333333333336 ], [ -7.5, 55.5 ], [ -7.166666666666667, 55.5 ], [ -7.166666666666667, 55.333333333333336 ], [ -6.0, 55.333333333333336 ], [ -6.0, 55.166666666666664 ] ] ], [ [ [ -4.166666666666667, 54.166666666666664 ], [ -4.333333333333334, 54.166666666666664 ], [ -4.333333333333334, 54.0 ], [ -4.833333333333334, 54.0 ], [ -4.833333333333334, 54.333333333333336 ], [ -4.666666666666667, 54.333333333333336 ], [ -4.666666666666667, 54.5 ], [ -4.333333333333334, 54.5 ], [ -4.333333333333334, 54.333333333333336 ], [ -4.166666666666667, 54.333333333333336 ], [ -4.166666666666667, 54.166666666666664 ] ] ], [ [ [ -6.833333333333334, 57.0 ], [ -6.666666666666667, 57.0 ], [ -6.666666666666667, 56.833333333333336 ], [ -6.833333333333334, 56.833333333333336 ], [ -6.833333333333334, 57.0 ] ] ], [ [ [ -8.5, 57.833333333333336 ], [ -8.5, 57.666666666666664 ], [ -8.666666666666668, 57.666666666666664 ], [ -8.666666666666668, 57.833333333333336 ], [ -8.5, 57.833333333333336 ] ] ], [ [ [ -8.5, 57.833333333333336 ], [ -8.5, 58.0 ], [ -8.333333333333334, 58.0 ], [ -8.333333333333334, 57.833333333333336 ], [ -8.5, 57.833333333333336 ] ] ], [ [ [ -7.666666666666667, 58.333333333333336 ], [ -7.5, 58.333333333333336 ], [ -7.5, 58.166666666666664 ], [ -7.666666666666667, 58.166666666666664 ], [ -7.666666666666667, 58.333333333333336 ] ] ], [ [ [ -6.166666666666667, 59.166666666666664 ], [ -5.666666666666667, 59.166666666666664 ], [ -5.666666666666667, 59.0 ], [ -6.166666666666667, 59.0 ], [ -6.166666666666667, 59.166666666666664 ] ] ], [ [ [ -2.166666666666668, 49.166666666666671 ], [ -2.333333333333334, 49.166666666666671 ], [ -2.333333333333334, 49.333333333333336 ], [ -2.0, 49.333333333333336 ], [ -2.0, 49.0 ], [ -2.166666666666668, 49.0 ], [ -2.166666666666668, 49.166666666666671 ] ] ], [ [ [ -2.666666666666668, 49.666666666666671 ], [ -2.5, 49.666666666666671 ], [ -2.5, 49.5 ], [ -2.333333333333334, 49.5 ], [ -2.333333333333334, 49.333333333333336 ], [ -2.833333333333334, 49.333333333333336 ], [ -2.833333333333334, 49.5 ], [ -2.666666666666668, 49.5 ], [ -2.666666666666668, 49.666666666666671 ] ] ], [ [ [ 2.666666666666666, 51.333333333333336 ], [ 3.0, 51.333333333333336 ], [ 3.0, 49.0 ], [ -1.666666666666668, 49.0 ], [ -1.666666666666668, 49.166666666666671 ], [ -1.833333333333334, 49.166666666666671 ], [ -1.833333333333334, 49.333333333333336 ], [ -2.0, 49.333333333333336 ], [ -2.0, 49.666666666666671 ], [ -2.5, 49.666666666666671 ], [ -2.5, 49.833333333333336 ], [ -1.666666666666668, 49.833333333333336 ], [ -1.666666666666668, 49.666666666666671 ], [ -1.5, 49.666666666666671 ], [ -1.5, 49.833333333333336 ], [ -1.166666666666668, 49.833333333333336 ], [ -1.166666666666668, 49.5 ], [ -0.333333333333334, 49.5 ], [ -0.333333333333334, 49.333333333333336 ], [ 0.0, 49.333333333333336 ], [ 0.0, 49.833333333333336 ], [ 0.5, 49.833333333333336 ], [ 0.5, 50.0 ], [ 1.166666666666666, 50.0 ], [ 1.166666666666666, 50.166666666666671 ], [ 1.333333333333332, 50.166666666666671 ], [ 1.333333333333332, 50.333333333333336 ], [ 1.5, 50.333333333333336 ], [ 1.5, 51.0 ], [ 2.0, 51.0 ], [ 2.0, 51.166666666666671 ], [ 2.666666666666666, 51.166666666666671 ], [ 2.666666666666666, 51.333333333333336 ] ] ], [ [ [ 0.5, 50.666666666666671 ], [ -1.0, 50.666666666666671 ], [ -1.0, 50.5 ], [ -1.666666666666668, 50.5 ], [ -1.666666666666668, 50.666666666666671 ], [ -1.833333333333334, 50.666666666666671 ], [ -1.833333333333334, 50.5 ], [ -2.666666666666668, 50.5 ], [ -2.666666666666668, 50.666666666666671 ], [ -3.166666666666667, 50.666666666666671 ], [ -3.166666666666667, 50.5 ], [ -3.333333333333334, 50.5 ], [ -3.333333333333334, 50.333333333333336 ], [ -3.5, 50.333333333333336 ], [ -3.5, 50.166666666666671 ], [ -4.333333333333334, 50.166666666666671 ], [ -4.333333333333334, 50.333333333333336 ], [ -4.5, 50.333333333333336 ], [ -4.5, 50.166666666666671 ], [ -4.833333333333334, 50.166666666666671 ], [ -4.833333333333334, 50.0 ], [ -5.166666666666667, 50.0 ], [ -5.166666666666667, 49.833333333333336 ], [ -5.333333333333334, 49.833333333333336 ], [ -5.333333333333334, 50.0 ], [ -5.833333333333334, 50.0 ], [ -5.833333333333334, 50.166666666666671 ], [ -5.666666666666667, 50.166666666666671 ], [ -5.666666666666667, 50.333333333333336 ], [ -5.333333333333334, 50.333333333333336 ], [ -5.333333333333334, 50.5 ], [ -5.166666666666667, 50.5 ], [ -5.166666666666667, 50.666666666666671 ], [ -4.833333333333334, 50.666666666666671 ], [ -4.833333333333334, 50.833333333333336 ], [ -4.666666666666667, 50.833333333333336 ], [ -4.666666666666667, 51.0 ], [ -4.833333333333334, 51.0 ], [ -4.833333333333334, 51.333333333333336 ], [ -4.5, 51.333333333333336 ], [ -4.5, 51.166666666666671 ], [ -4.333333333333334, 51.166666666666671 ], [ -4.333333333333334, 51.333333333333336 ], [ -3.833333333333334, 51.333333333333336 ], [ -3.833333333333334, 51.5 ], [ -4.333333333333334, 51.5 ], [ -4.333333333333334, 51.666666666666671 ], [ -4.666666666666667, 51.666666666666671 ], [ -4.666666666666667, 51.5 ], [ -5.166666666666667, 51.5 ], [ -5.166666666666667, 51.666666666666671 ], [ -5.333333333333334, 51.666666666666671 ], [ -5.333333333333334, 51.833333333333336 ], [ -5.5, 51.833333333333336 ], [ -5.5, 52.0 ], [ -5.166666666666667, 52.0 ], [ -5.166666666666667, 52.166666666666671 ], [ -4.5, 52.166666666666671 ], [ -4.5, 52.333333333333336 ], [ -4.166666666666667, 52.333333333333336 ], [ -4.166666666666667, 52.833333333333336 ], [ -4.333333333333334, 52.833333333333336 ], [ -4.333333333333334, 52.666666666666671 ], [ -4.833333333333334, 52.666666666666671 ], [ -4.833333333333334, 53.0 ], [ -4.5, 53.0 ], [ -4.5, 53.166666666666664 ], [ -4.833333333333334, 53.166666666666664 ], [ -4.833333333333334, 53.333333333333336 ], [ -4.666666666666667, 53.333333333333336 ], [ -4.666666666666667, 53.5 ], [ -4.166666666666667, 53.5 ], [ -4.166666666666667, 53.333333333333336 ], [ -4.0, 53.333333333333336 ], [ -4.0, 53.5 ], [ -3.833333333333334, 53.5 ], [ -3.833333333333334, 53.333333333333336 ], [ -3.5, 53.333333333333336 ], [ -3.5, 53.5 ], [ -3.166666666666667, 53.5 ], [ -3.166666666666667, 54.0 ], [ -3.333333333333334, 54.0 ], [ -3.333333333333334, 54.166666666666664 ], [ -3.5, 54.166666666666664 ], [ -3.5, 54.333333333333336 ], [ -3.666666666666667, 54.333333333333336 ], [ -3.666666666666667, 54.666666666666664 ], [ -4.833333333333334, 54.666666666666664 ], [ -4.833333333333334, 54.5 ], [ -5.0, 54.5 ], [ -5.0, 54.666666666666664 ], [ -5.166666666666667, 54.666666666666664 ], [ -5.166666666666667, 54.833333333333336 ], [ -5.333333333333334, 54.833333333333336 ], [ -5.333333333333334, 55.0 ], [ -5.166666666666667, 55.0 ], [ -5.166666666666667, 55.333333333333336 ], [ -5.333333333333334, 55.333333333333336 ], [ -5.333333333333334, 55.5 ], [ -5.5, 55.5 ], [ -5.5, 55.166666666666664 ], [ -5.833333333333334, 55.166666666666664 ], [ -5.833333333333334, 55.666666666666664 ], [ -6.0, 55.666666666666664 ], [ -6.0, 55.5 ], [ -6.333333333333334, 55.5 ], [ -6.333333333333334, 55.666666666666664 ], [ -6.666666666666667, 55.666666666666664 ], [ -6.666666666666667, 55.833333333333336 ], [ -6.5, 55.833333333333336 ], [ -6.5, 56.0 ], [ -6.333333333333334, 56.0 ], [ -6.333333333333334, 56.166666666666664 ], [ -6.5, 56.166666666666664 ], [ -6.5, 56.5 ], [ -6.666666666666667, 56.5 ], [ -6.666666666666667, 56.333333333333336 ], [ -7.0, 56.333333333333336 ], [ -7.0, 56.666666666666664 ], [ -6.666666666666667, 56.666666666666664 ], [ -6.666666666666667, 56.833333333333336 ], [ -6.5, 56.833333333333336 ], [ -6.5, 57.0 ], [ -6.666666666666667, 57.0 ], [ -6.666666666666667, 57.166666666666664 ], [ -6.5, 57.166666666666664 ], [ -6.5, 57.333333333333336 ], [ -6.833333333333334, 57.333333333333336 ], [ -6.833333333333334, 57.666666666666664 ], [ -7.0, 57.666666666666664 ], [ -7.0, 57.333333333333336 ], [ -7.166666666666667, 57.333333333333336 ], [ -7.166666666666667, 57.0 ], [ -7.333333333333334, 57.0 ], [ -7.333333333333334, 56.833333333333336 ], [ -7.5, 56.833333333333336 ], [ -7.5, 56.666666666666664 ], [ -7.666666666666667, 56.666666666666664 ], [ -7.666666666666667, 57.166666666666664 ], [ -7.5, 57.166666666666664 ], [ -7.5, 57.5 ], [ -7.833333333333334, 57.5 ], [ -7.833333333333334, 57.833333333333336 ], [ -7.666666666666667, 57.833333333333336 ], [ -7.666666666666667, 57.666666666666664 ], [ -7.5, 57.666666666666664 ], [ -7.5, 57.833333333333336 ], [ -7.166666666666667, 57.833333333333336 ], [ -7.166666666666667, 58.0 ], [ -7.333333333333334, 58.0 ], [ -7.333333333333334, 58.166666666666664 ], [ -7.166666666666667, 58.166666666666664 ], [ -7.166666666666667, 58.333333333333336 ], [ -6.833333333333334, 58.333333333333336 ], [ -6.833333333333334, 58.5 ], [ -6.333333333333334, 58.5 ], [ -6.333333333333334, 58.666666666666664 ], [ -6.166666666666667, 58.666666666666664 ], [ -6.166666666666667, 58.333333333333336 ], [ -6.0, 58.333333333333336 ], [ -6.0, 58.166666666666664 ], [ -6.333333333333334, 58.166666666666664 ], [ -6.333333333333334, 57.833333333333336 ], [ -6.166666666666667, 57.833333333333336 ], [ -6.166666666666667, 57.666666666666664 ], [ -5.833333333333334, 57.666666666666664 ], [ -5.833333333333334, 58.0 ], [ -5.5, 58.0 ], [ -5.5, 58.333333333333336 ], [ -5.333333333333334, 58.333333333333336 ], [ -5.333333333333334, 58.5 ], [ -5.166666666666667, 58.5 ], [ -5.166666666666667, 58.666666666666664 ], [ -3.5, 58.666666666666664 ], [ -3.5, 59.166666666666664 ], [ -3.166666666666667, 59.166666666666664 ], [ -3.166666666666667, 59.333333333333336 ], [ -3.0, 59.333333333333336 ], [ -3.0, 59.5 ], [ -2.833333333333334, 59.5 ], [ -2.833333333333334, 59.333333333333336 ], [ -2.5, 59.333333333333336 ], [ -2.5, 59.5 ], [ -2.333333333333334, 59.5 ], [ -2.333333333333334, 59.166666666666664 ], [ -2.5, 59.166666666666664 ], [ -2.5, 59.0 ], [ -2.666666666666668, 59.0 ], [ -2.666666666666668, 58.833333333333336 ], [ -2.833333333333334, 58.833333333333336 ], [ -2.833333333333334, 58.666666666666664 ], [ -3.0, 58.666666666666664 ], [ -3.0, 58.333333333333336 ], [ -3.166666666666667, 58.333333333333336 ], [ -3.166666666666667, 58.166666666666664 ], [ -3.5, 58.166666666666664 ], [ -3.5, 58.0 ], [ -3.666666666666667, 58.0 ], [ -3.666666666666667, 57.833333333333336 ], [ -1.833333333333334, 57.833333333333336 ], [ -1.833333333333334, 57.666666666666664 ], [ -1.666666666666668, 57.666666666666664 ], [ -1.666666666666668, 57.333333333333336 ], [ -1.833333333333334, 57.333333333333336 ], [ -1.833333333333334, 57.166666666666664 ], [ -2.0, 57.166666666666664 ], [ -2.0, 57.0 ], [ -2.166666666666668, 57.0 ], [ -2.166666666666668, 56.666666666666664 ], [ -2.333333333333334, 56.666666666666664 ], [ -2.333333333333334, 56.5 ], [ -2.666666666666668, 56.5 ], [ -2.666666666666668, 56.333333333333336 ], [ -2.5, 56.333333333333336 ], [ -2.5, 56.0 ], [ -2.0, 56.0 ], [ -2.0, 55.833333333333336 ], [ -1.666666666666668, 55.833333333333336 ], [ -1.666666666666668, 55.666666666666664 ], [ -1.5, 55.666666666666664 ], [ -1.5, 55.166666666666664 ], [ -1.333333333333334, 55.166666666666664 ], [ -1.333333333333334, 55.0 ], [ -1.166666666666668, 55.0 ], [ -1.166666666666668, 54.666666666666664 ], [ -0.666666666666668, 54.666666666666664 ], [ -0.666666666666668, 54.5 ], [ -0.333333333333334, 54.5 ], [ -0.333333333333334, 54.333333333333336 ], [ -0.166666666666668, 54.333333333333336 ], [ -0.166666666666668, 54.166666666666664 ], [ 0.0, 54.166666666666664 ], [ 0.0, 53.833333333333336 ], [ 0.166666666666666, 53.833333333333336 ], [ 0.166666666666666, 53.5 ], [ 0.333333333333332, 53.5 ], [ 0.333333333333332, 53.333333333333336 ], [ 0.5, 53.333333333333336 ], [ 0.5, 53.0 ], [ 1.666666666666666, 53.0 ], [ 1.666666666666666, 52.833333333333336 ], [ 1.833333333333332, 52.833333333333336 ], [ 1.833333333333332, 52.166666666666671 ], [ 1.666666666666666, 52.166666666666671 ], [ 1.666666666666666, 52.0 ], [ 1.5, 52.0 ], [ 1.5, 51.833333333333336 ], [ 1.333333333333332, 51.833333333333336 ], [ 1.333333333333332, 51.666666666666671 ], [ 1.0, 51.666666666666671 ], [ 1.0, 51.5 ], [ 1.5, 51.5 ], [ 1.5, 51.0 ], [ 1.0, 51.0 ], [ 1.0, 50.833333333333336 ], [ 0.5, 50.833333333333336 ], [ 0.5, 50.666666666666671 ] ], [ [ -6.666666666666667, 57.833333333333336 ], [ -6.666666666666667, 57.666666666666664 ], [ -6.5, 57.666666666666664 ], [ -6.5, 57.833333333333336 ], [ -6.666666666666667, 57.833333333333336 ] ], [ [ -3.333333333333334, 57.0 ], [ -3.333333333333334, 57.166666666666664 ], [ -3.833333333333334, 57.166666666666664 ], [ -3.833333333333334, 56.833333333333336 ], [ -3.166666666666667, 56.833333333333336 ], [ -3.166666666666667, 57.0 ], [ -3.333333333333334, 57.0 ] ], [ [ -5.0, 55.5 ], [ -5.0, 55.333333333333336 ], [ -4.833333333333334, 55.333333333333336 ], [ -4.833333333333334, 55.5 ], [ -5.0, 55.5 ] ] ], [ [ [ -4.5, 59.166666666666664 ], [ -4.333333333333334, 59.166666666666664 ], [ -4.333333333333334, 59.0 ], [ -4.5, 59.0 ], [ -4.5, 59.166666666666664 ] ] ], [ [ [ -1.666666666666668, 59.666666666666664 ], [ -1.5, 59.666666666666664 ], [ -1.5, 59.5 ], [ -1.666666666666668, 59.5 ], [ -1.666666666666668, 59.666666666666664 ] ] ], [ [ [ -2.166666666666668, 60.166666666666664 ], [ -2.0, 60.166666666666664 ], [ -2.0, 60.0 ], [ -2.166666666666668, 60.0 ], [ -2.166666666666668, 60.166666666666664 ] ] ], [ [ [ -0.666666666666668, 60.333333333333336 ], [ -0.833333333333334, 60.333333333333336 ], [ -0.833333333333334, 60.166666666666664 ], [ -1.0, 60.166666666666664 ], [ -1.0, 59.833333333333336 ], [ -1.5, 59.833333333333336 ], [ -1.5, 60.0 ], [ -1.666666666666668, 60.0 ], [ -1.666666666666668, 60.166666666666664 ], [ -1.833333333333334, 60.166666666666664 ], [ -1.833333333333334, 60.5 ], [ -1.666666666666668, 60.5 ], [ -1.666666666666668, 60.666666666666664 ], [ -1.166666666666668, 60.666666666666664 ], [ -1.166666666666668, 60.833333333333336 ], [ -1.0, 60.833333333333336 ], [ -1.0, 61.0 ], [ -0.833333333333334, 61.0 ], [ -0.833333333333334, 60.833333333333336 ], [ -0.666666666666668, 60.833333333333336 ], [ -0.666666666666668, 60.333333333333336 ] ] ] ] } }
]
}
